IRIDIUM 63              
1 25286U 98021B   25216.86827649  .00000301  00000+0  95775-4 0  9999
2 25286  86.3937  61.6983 0002279  90.9040 269.2418 14.36573600430831
IRIDIUM 69              
1 25319U 98026A   25217.14812401  .00000407  00000+0  12055-3 0  9999
2 25319  86.3930  74.7249 0001730 161.5282 198.5981 14.41005851430355
IRIDIUM 71              
1 25320U 98026B   25216.52372172  .00000340  00000+0  99129-4 0  9992
2 25320  86.3929  69.6704 0000693   9.4206 350.7007 14.41189220430553
IRIDIUM 73              
1 25344U 98032C   25216.72459541  .00000576  00000+0  13830-3 0  9998
2 25344  86.4407  26.1909 0002221 108.1179 252.0269 14.51758476437604
IRIDIUM 82              
1 25467U 98051A   25216.91413225  .00025760  00000+0  69110-3 0  9999
2 25467  86.3635  85.7403 0084173 110.6247 250.4057 15.34207232431424
